{
    "links": {
        "self": "http://www.neowsapp.com/rest/v1/neo/3180156?api_key=iIulBulltgU6a56xZRHN4H3l9WmuAYTsLGpBGhQ2"
    },
    "id": "3180156",
    "neo_reference_id": "3180156",
    "name": "(2004 HH20)",
    "designation": "2004 HH20",
    "nasa_jpl_url": "http://ssd.jpl.nasa.gov/sbdb.cgi?sstr=3180156",
    "absolute_magnitude_h": 25.1,
    "estimated_diameter": {
        "kilometers": {
            "estimated_diameter_min": 0.0253837029,
            "estimated_diameter_max": 0.0567596853
        },
        "meters": {
            "estimated_diameter_min": 25.3837029364,
            "estimated_diameter_max": 56.7596852866
        },
        "miles": {
            "estimated_diameter_min": 0.0157726969,
            "estimated_diameter_max": 0.0352688224
        },
        "feet": {
            "estimated_diameter_min": 83.279867942,
            "estimated_diameter_max": 186.2194458756
        }
    },
    "is_potentially_hazardous_asteroid": false,
    "close_approach_data": [
        {
            "close_approach_date": "2004-04-28",
            "close_approach_date_full": "2004-Apr-28 12:56",
            "epoch_date_close_approach": 1083156960000,
            "relative_velocity": {
                "kilometers_per_second": "6.4220487311",
                "kilometers_per_hour": "23119.3754319909",
                "miles_per_hour": "14365.4808066168"
            },
            "miss_distance": {
                "astronomical": "0.0371603979",
                "lunar": "14.4553947831",
                "kilometers": "5559116.374192473",
                "miles": "3454274.7380752074"
            },
            "orbiting_body": "Earth"
        },
        {
            "close_approach_date": "2042-03-31",
            "close_approach_date_full": "2042-Mar-31 16:53",
            "epoch_date_close_approach": 2279897580000,
            "relative_velocity": {
                "kilometers_per_second": "13.9973442853",
                "kilometers_per_hour": "50390.4394272377",
                "miles_per_hour": "31310.6594318855"
            },
            "miss_distance": {
                "astronomical": "0.281068689",
                "lunar": "109.335720021",
                "kilometers": "42047277.19809243",
                "miles": "26126966.527358334"
            },
            "orbiting_body": "Earth"
        }
    ],
    "orbital_data": {
        "orbit_id": "10",
        "orbit_determination_date": "2017-04-06 09:12:52",
        "first_observation_date": "2004-04-21",
        "last_observation_date": "2004-04-30",
        "data_arc_in_days": 9,
        "observations_used": 44,
        "orbit_uncertainty": "7",
        "minimum_orbit_intersection": ".0310416",
        "jupiter_tisserand_invariant": "3.983",
        "epoch_osculation": "2459000.5",
        "eccentricity": ".4193547225853114",
        "semi_major_axis": "1.779885602197675",
        "inclination": "4.132543053961365",
        "ascending_node_longitude": "32.63764553540985",
        "orbital_period": "867.3343805105239",
        "perihelion_distance": "1.033482169254479",
        "perihelion_argument": "199.070563170108",
        "aphelion_distance": "2.526289035140871",
        "perihelion_time": "2459205.679393264246",
        "mean_anomaly": "274.8372493528378",
        "mean_motion": ".4150648332285635",
        "equinox": "J2000",
        "orbit_class": {
            "orbit_class_type": "AMO",
            "orbit_class_description": "Near-Earth asteroid orbits similar to that of 1221 Amor",
            "orbit_class_range": "1.017 AU < q (perihelion) < 1.3 AU"
        }
    },
    "is_sentry_object": false
}